
<!DOCTYPE html
  PUBLIC "-//W3C//DTD HTML 4.01 Transitional//EN">
<html><head>
      <meta http-equiv="Content-Type" content="text/html; charset=utf-8">
   <!--
This HTML is auto-generated from an M-file.
To make changes, update the M-file and republish this document.
      --><title>Hw8.1</title><meta name="generator" content="MATLAB 7.9"><meta name="date" content="2012-05-29"><meta name="m-file" content="Hw8p1"><style type="text/css">

body {
  background-color: white;
  margin:10px;
}

h1 {
  color: #990000; 
  font-size: x-large;
}

h2 {
  color: #990000;
  font-size: medium;
}

/* Make the text shrink to fit narrow windows, but not stretch too far in 
wide windows. */ 
p,h1,h2,div.content div {
  max-width: 600px;
  /* Hack for IE6 */
  width: auto !important; width: 600px;
}

pre.codeinput {
  background: #EEEEEE;
  padding: 10px;
}
@media print {
  pre.codeinput {word-wrap:break-word; width:100%;}
} 

span.keyword {color: #0000FF}
span.comment {color: #228B22}
span.string {color: #A020F0}
span.untermstring {color: #B20000}
span.syscmd {color: #B28C00}

pre.codeoutput {
  color: #666666;
  padding: 10px;
}

pre.error {
  color: red;
}

p.footer {
  text-align: right;
  font-size: xx-small;
  font-weight: lighter;
  font-style: italic;
  color: gray;
}

  </style></head><body><div class="content"><h1>Hw8.1</h1><pre class="codeinput">clear <span class="string">all</span>; close <span class="string">all</span>; clc; format <span class="string">long</span>

<span class="comment">% Earth physical constants from Vallado</span>
muearth = 398600.4418;              <span class="comment">% [km^3/sec^2]</span>
reearth =   6378.137;               <span class="comment">% [km] mean equatorial radius</span>
rotEarthRad = 0.0000729211585530;  <span class="comment">% [rad/sec]</span>
rotEarthDay = 1.0027379093;  <span class="comment">%rev/day</span>
rotEarthDay = rotEarthRad*3600*24/(2*pi);
e2earth =      0.006694385000;      <span class="comment">% oblate eccentricity squared</span>

path(path,<span class="string">'Toolbox'</span>)
</pre><pre class="codeinput"><span class="comment">% GPS BIIRM-3 (PRN 12)</span>
<span class="comment">% 1 29601U 06052A   11098.22509229  .00000017  00000-0  10000-3 0  2930</span>
<span class="comment">% 2 29601  55.8420  72.2714 0037332 341.9446  17.9155  2.00551194 32163</span>

yearo_i      = 2011;          <span class="comment">% epoch year</span>
to_i         =  98.22509229; <span class="comment">% [day] epoch as day of year plus fraction</span>
inc_i        =   55.8420;     <span class="comment">% [deg]</span>
RAAN_i       =   72.2714;     <span class="comment">% [deg]</span>
ecc_i        =    0.0037332;
omega_i      =  341.9446;     <span class="comment">% [deg]</span>
Mo_i         =    17.9155;     <span class="comment">% [deg]</span>
meanmotion_i =    2.00551194; <span class="comment">% [rev/day]</span>

<span class="comment">%convert the elements from degrees to radians</span>
inc_i = inc_i*pi/180;
RAAN_i = RAAN_i*pi/180;
omega_i = omega_i*pi/180;
Mo_i = Mo_i*pi/180;

n_i = (meanmotion_i*2.0*pi)/(24*60*60);        <span class="comment">% [rad/sec]</span>
p_i = ((muearth/(n_i*n_i))^(1.0/3.0))*(1.0-ecc_i*ecc_i); <span class="comment">% [km]</span>
a_i = p_i/(1-ecc_i*ecc_i);   <span class="comment">%[km]</span>

tau_i = 2*pi*sqrt(a_i^3/muearth)/(3600*24);

<span class="comment">% GPS BIIRM-3 (PRN 12)</span>
<span class="comment">% 1 29601U 06052A   12104.16441319 -.00000023  00000-0  10000-3 0  6951</span>
<span class="comment">% 2 29601  56.1095  57.6374 0039356 355.0140   4.9311  2.00579332 39609</span>

yearo_f      = 2012;          <span class="comment">% epoch year</span>
to_f         =  104.16441319; <span class="comment">% [day] epoch as day of year plus fraction</span>
inc_f        =   56.1095;     <span class="comment">% [deg]</span>
RAAN_f       =   57.6374;     <span class="comment">% [deg]</span>
ecc_f        =    0.0039356;
omega_f      =  355.0140;     <span class="comment">% [deg]</span>
Mo_f         =    4.9311;     <span class="comment">% [deg]</span>
meanmotion_f =    2.00579332; <span class="comment">% [rev/day]</span>

<span class="comment">%convert the elements from degrees to radians</span>
inc_f = inc_f*pi/180;
RAAN_f = RAAN_f*pi/180;
omega_f = omega_f*pi/180;
Mo_f = Mo_f*pi/180;

n_f = (meanmotion_f*2.0*pi)/(24*60*60);        <span class="comment">% [rad/sec]</span>
p_f = ((muearth/(n_f*n_f))^(1.0/3.0))*(1.0-ecc_f*ecc_f); <span class="comment">% [km]</span>
a_f = p_f/(1-ecc_f*ecc_f);   <span class="comment">%[km]</span>

tau_f = 2*pi*sqrt(a_f^3/muearth)/(3600*24);


end2011 = UTC_time(31,12,2011,24,60,60,0);
start2012 = UTC_time(1,1,2012,0,0,0,0);
delta_time_UTC = (to_f - start2012) + (end2011 - to_i);
delta_time_sec = delta_time_UTC*24*3600;

dRAAN_dt_avg = (RAAN_f - RAAN_i)/delta_time_sec;

J2_est_f = dRAAN_dt_avg * (-2/3) * (p_f/reearth)^2 * 1/(n_f * cos(inc_f))
J2_est_i = dRAAN_dt_avg * (-2/3) * (p_i/reearth)^2 * 1/(n_i * cos(inc_i))

J2_actual = 1.0826e-3






<span class="comment">% Not too shabby.  With rounding I get the first two significant digits.</span>
</pre><pre class="codeoutput">
J2_est_f =

   0.001132460391302


J2_est_i =

   0.001125027656807


J2_actual =

   0.001082600000000

</pre><p class="footer"><br>
      Published with MATLAB&reg; 7.9<br></p></div><!--
##### SOURCE BEGIN #####
%% Hw8.1
clear all; close all; clc; format long

% Earth physical constants from Vallado
muearth = 398600.4418;              % [km^3/sec^2]
reearth =   6378.137;               % [km] mean equatorial radius
rotEarthRad = 0.0000729211585530;  % [rad/sec]
rotEarthDay = 1.0027379093;  %rev/day
rotEarthDay = rotEarthRad*3600*24/(2*pi);
e2earth =      0.006694385000;      % oblate eccentricity squared

path(path,'Toolbox')
%%

% GPS BIIRM-3 (PRN 12) 
% 1 29601U 06052A   11098.22509229  .00000017  00000-0  10000-3 0  2930 
% 2 29601  55.8420  72.2714 0037332 341.9446  17.9155  2.00551194 32163 
 
yearo_i      = 2011;          % epoch year
to_i         =  98.22509229; % [day] epoch as day of year plus fraction
inc_i        =   55.8420;     % [deg]
RAAN_i       =   72.2714;     % [deg]
ecc_i        =    0.0037332;
omega_i      =  341.9446;     % [deg]
Mo_i         =    17.9155;     % [deg] 
meanmotion_i =    2.00551194; % [rev/day]

%convert the elements from degrees to radians
inc_i = inc_i*pi/180;
RAAN_i = RAAN_i*pi/180;
omega_i = omega_i*pi/180;
Mo_i = Mo_i*pi/180;

n_i = (meanmotion_i*2.0*pi)/(24*60*60);        % [rad/sec]
p_i = ((muearth/(n_i*n_i))^(1.0/3.0))*(1.0-ecc_i*ecc_i); % [km]
a_i = p_i/(1-ecc_i*ecc_i);   %[km] 

tau_i = 2*pi*sqrt(a_i^3/muearth)/(3600*24);

% GPS BIIRM-3 (PRN 12) 
% 1 29601U 06052A   12104.16441319 -.00000023  00000-0  10000-3 0  6951 
% 2 29601  56.1095  57.6374 0039356 355.0140   4.9311  2.00579332 39609 

yearo_f      = 2012;          % epoch year
to_f         =  104.16441319; % [day] epoch as day of year plus fraction
inc_f        =   56.1095;     % [deg]
RAAN_f       =   57.6374;     % [deg]
ecc_f        =    0.0039356;
omega_f      =  355.0140;     % [deg]
Mo_f         =    4.9311;     % [deg] 
meanmotion_f =    2.00579332; % [rev/day]

%convert the elements from degrees to radians
inc_f = inc_f*pi/180;
RAAN_f = RAAN_f*pi/180;
omega_f = omega_f*pi/180;
Mo_f = Mo_f*pi/180;

n_f = (meanmotion_f*2.0*pi)/(24*60*60);        % [rad/sec]
p_f = ((muearth/(n_f*n_f))^(1.0/3.0))*(1.0-ecc_f*ecc_f); % [km]
a_f = p_f/(1-ecc_f*ecc_f);   %[km] 

tau_f = 2*pi*sqrt(a_f^3/muearth)/(3600*24);


end2011 = UTC_time(31,12,2011,24,60,60,0);
start2012 = UTC_time(1,1,2012,0,0,0,0);
delta_time_UTC = (to_f - start2012) + (end2011 - to_i);
delta_time_sec = delta_time_UTC*24*3600;

dRAAN_dt_avg = (RAAN_f - RAAN_i)/delta_time_sec;

J2_est_f = dRAAN_dt_avg * (-2/3) * (p_f/reearth)^2 * 1/(n_f * cos(inc_f))
J2_est_i = dRAAN_dt_avg * (-2/3) * (p_i/reearth)^2 * 1/(n_i * cos(inc_i))

J2_actual = 1.0826e-3






% Not too shabby.  With rounding I get the first two significant digits.














##### SOURCE END #####
--></body></html>